H1 CPF  1  DGF 2022 05 26 10  6462 larets     NONE      
H2   304206 5557    27944 2022 05 01 00 00 00 2022 05 08 00 00 00    30 1 1  0 0 0
H5  0.0650
H9
10 0 59705  54000.000000  0       6820007.604      -1754172.190       -633573.268
10 0 59705  54030.000000  0       6785701.276      -1794503.943       -855230.176
10 0 59705  54060.000000  0       6744361.604      -1832855.694      -1076015.919
10 0 59705  54090.000000  0       6696040.867      -1869158.457      -1295705.875
10 0 59705  54120.000000  0       6640798.722      -1903345.593      -1514076.654
10 0 59705  54150.000000  0       6578702.123      -1935352.909      -1730906.334
10 0 59705  54180.000000  0       6509825.229      -1965118.749      -1945974.686
10 0 59705  54210.000000  0       6434249.311      -1992584.090      -2159063.396
10 0 59705  54240.000000  0       6352062.646      -2017692.627      -2369956.294
10 0 59705  54270.000000  0       6263360.409      -2040390.859      -2578439.567
10 0 59705  54300.000000  0       6168244.547      -2060628.171      -2784301.980
10 0 59705  54330.000000  0       6066823.661      -2078356.906      -2987335.085
10 0 59705  54360.000000  0       5959212.868      -2093532.445      -3187333.432
10 0 59705  54390.000000  0       5845533.665      -2106113.274      -3384094.774
10 0 59705  54420.000000  0       5725913.782      -2116061.048      -3577420.264
10 0 59705  54450.000000  0       5600487.032      -2123340.656      -3767114.659
10 0 59705  54480.000000  0       5469393.154      -2127920.275      -3952986.508
10 0 59705  54510.000000  0       5332777.645      -2129771.427      -4134848.345
10 0 59705  54540.000000  0       5190791.597      -2128869.027      -4312516.865
10 0 59705  54570.000000  0       5043591.518      -2125191.431      -4485813.112
10 0 59705  54600.000000  0       4891339.151      -2118720.475      -4654562.648
10 0 59705  54630.000000  0       4734201.293      -2109441.512      -4818595.719
10 0 59705  54660.000000  0       4572349.597      -2097343.448      -4977747.423
10 0 59705  54690.000000  0       4405960.387      -2082418.766      -5131857.862
10 0 59705  54720.000000  0       4235214.451      -2064663.554      -5280772.293
10 0 59705  54750.000000  0       4060296.846      -2044077.522      -5424341.273
10 0 59705  54780.000000  0       3881396.693      -2020664.018      -5562420.798
10 0 59705  54810.000000  0       3698706.967      -1994430.039      -5694872.436
10 0 59705  54840.000000  0       3512424.292      -1965386.236      -5821563.457
10 0 59705  54870.000000  0       3322748.726      -1933546.920      -5942366.951
10 0 59705  54900.000000  0       3129883.549      -1898930.054      -6057161.948
10 0 59705  54930.000000  0       2934035.049      -1861557.250      -6165833.533
10 0 59705  54960.000000  0       2735412.297      -1821453.762      -6268272.951
10 0 59705  54990.000000  0       2534226.930      -1778648.463      -6364377.710
10 0 59705  55020.000000  0       2330692.918      -1733173.834      -6454051.673
10 0 59705  55050.000000  0       2125026.342      -1685065.932      -6537205.146
10 0 59705  55080.000000  0       1917445.167      -1634364.365      -6613754.951
10 0 59705  55110.000000  0       1708169.014      -1581112.263      -6683624.509
10 0 59705  55140.000000  0       1497418.934      -1525356.237      -6746743.898
10 0 59705  55170.000000  0       1285417.180      -1467146.346      -6803049.922
10 0 59705  55200.000000  0       1072386.982      -1406536.051      -6852486.167
10 0 59705  55230.000000  0        858552.311      -1343582.167      -6895003.055
10 0 59705  55260.000000  0        644137.654      -1278344.809      -6930557.889
10 0 59705  55290.000000  0        429367.777      -1210887.336      -6959114.886
10 0 59705  55320.000000  0        214467.507      -1141276.293      -6980645.211
10 0 59705  55350.000000  0          -338.504      -1069581.348      -6995127.001
10 0 59705  55380.000000  0       -214825.996       -995875.222      -7002545.392
10 0 59705  55410.000000  0       -428771.337       -920233.623      -7002892.532
10 0 59705  55440.000000  0       -641951.746       -842735.169      -6996167.593
10 0 59705  55470.000000  0       -854145.523       -763461.310      -6982376.769
10 0 59705  55500.000000  0      -1065132.272       -682496.239      -6961533.279
10 0 59705  55530.000000  0      -1274693.121       -599926.812      -6933657.346
10 0 59705  55560.000000  0      -1482610.948       -515842.455      -6898776.190
10 0 59705  55590.000000  0      -1688670.596       -430335.072      -6856923.998
10 0 59705  55620.000000  0      -1892659.093       -343498.949      -6808141.901
10 0 59705  55650.000000  0      -2094365.864       -255430.655      -6752477.934
10 0 59705  55680.000000  0      -2293582.942       -166228.939      -6689986.999
10 0 59705  55710.000000  0      -2490105.180        -75994.625      -6620730.816
10 0 59705  55740.000000  0      -2683730.453         15169.497      -6544777.879
10 0 59705  55770.000000  0      -2874259.870        107158.784      -6462203.393
10 0 59705  55800.000000  0      -3061497.974        199866.858      -6373089.214
10 0 59705  55830.000000  0      -3245252.942        293185.717      -6277523.781
10 0 59705  55860.000000  0      -3425336.786        387005.865      -6175602.037
10 0 59705  55890.000000  0      -3601565.551        481216.430      -6067425.346
10 0 59705  55920.000000  0      -3773759.499        575705.288      -5953101.398
10 0 59705  55950.000000  0      -3941743.298        670359.196      -5832744.116
10 0 59705  55980.000000  0      -4105346.199        765063.917      -5706473.555
10 0 59705  56010.000000  0      -4264402.216        859704.357      -5574415.792
10 0 59705  56040.000000  0      -4418750.300        954164.693      -5436702.823
10 0 59705  56070.000000  0      -4568234.511       1048328.520      -5293472.439
10 0 59705  56100.000000  0      -4712704.187       1142078.987      -5144868.100
10 0 59705  56130.000000  0      -4852014.105       1235298.941      -4991038.804
10 0 59705  56160.000000  0      -4986024.634       1327871.067      -4832138.938
10 0 59705  56190.000000  0      -5114601.882       1419678.039      -4668328.142
10 0 59705  56220.000000  0      -5237617.842       1510602.656      -4499771.147
10 0 59705  56250.000000  0      -5354950.524       1600527.992      -4326637.629
10 0 59705  56280.000000  0      -5466484.092       1689337.543      -4149102.040
10 0 59705  56310.000000  0      -5572108.984       1776915.371      -3967343.442
10 0 59705  56340.000000  0      -5671722.038       1863146.253      -3781545.337
10 0 59705  56370.000000  0      -5765226.600       1947915.830      -3591895.483
10 0 59705  56400.000000  0      -5852532.633       2031110.752      -3398585.711
10 0 59705  56430.000000  0      -5933556.814       2112618.828      -3201811.738
10 0 59705  56460.000000  0      -6008222.627       2192329.172      -3001772.967
10 0 59705  56490.000000  0      -6076460.446       2270132.349      -2798672.292
10 0 59705  56520.000000  0      -6138207.611       2345920.526      -2592715.894
10 0 59705  56550.000000  0      -6193408.500       2419587.610      -2384113.031
10 0 59705  56580.000000  0      -6242014.590       2491029.400      -2173075.823
10 0 59705  56610.000000  0      -6283984.507       2560143.721      -1959819.039
10 0 59705  56640.000000  0      -6319284.074       2626830.573      -1744559.872
10 0 59705  56670.000000  0      -6347886.347       2690992.263      -1527517.717
10 0 59705  56700.000000  0      -6369771.643       2752533.546      -1308913.943
10 0 59705  56730.000000  0      -6384927.558       2811361.757      -1088971.665
10 0 59705  56760.000000  0      -6393348.983       2867386.943       -867915.505
10 0 59705  56790.000000  0      -6395038.109       2920521.994       -645971.360
10 0 59705  56820.000000  0      -6390004.411       2970682.767       -423366.159
10 0 59705  56850.000000  0      -6378264.640       3017788.204       -200327.625
10 0 59705  56880.000000  0      -6359842.792       3061760.459         22915.964
10 0 59705  56910.000000  0      -6334770.084       3102525.005        246136.019
10 0 59705  56940.000000  0      -6303084.901       3140010.751        469103.885
10 0 59705  56970.000000  0      -6264832.753       3174150.152        691591.079
10 0 59705  57000.000000  0      -6220066.215       3204879.308        913369.535
10 0 59705  57030.000000  0      -6168844.857       3232138.066       1134211.847
10 0 59705  57060.000000  0      -6111235.176       3255870.118       1353891.513
10 0 59705  57090.000000  0      -6047310.503       3276023.082       1572183.179
10 0 59705  57120.000000  0      -5977150.911       3292548.595       1788862.878
10 0 59705  57150.000000  0      -5900843.120       3305402.386       2003708.262
10 0 59705  57180.000000  0      -5818480.383       3314544.360       2216498.844
10 0 59705  57210.000000  0      -5730162.381       3319938.662       2427016.230
10 0 59705  57240.000000  0      -5635995.092       3321553.749       2635044.353
10 0 59705  57270.000000  0      -5536090.663       3319362.442       2840369.705
10 0 59705  57300.000000  0      -5430567.275       3313341.987       3042781.563
10 0 59705  57330.000000  0      -5319548.993       3303474.098       3242072.216
10 0 59705  57360.000000  0      -5203165.618       3289745.001       3438037.178
10 0 59705  57390.000000  0      -5081552.527       3272145.470       3630475.409
10 0 59705  57420.000000  0      -4954850.510       3250670.859       3819189.526
10 0 59705  57450.000000  0      -4823205.598       3225321.127       4003986.004
10 0 59705  57480.000000  0      -4686768.888       3196100.859       4184675.384
10 0 59705  57510.000000  0      -4545696.363       3163019.279       4361072.461
10 0 59705  57540.000000  0      -4400148.710       3126090.263       4532996.482
10 0 59705  57570.000000  0      -4250291.127       3085332.338       4700271.331
99
